LEDSAT                  
1 49069U 21073D   24366.67656906  .00058039  00000+0  14512-2 0  9996
2 49069  97.4135  78.0819 0013308 302.7865  57.2098 15.39837446186677
ROBUSTA-1F (MTCUBE 2)   
1 53109U 22080E   24365.35174012 -.00000003  00000+0  00000+0 0  9995
2 53109  70.1231 123.9128 0008380  45.3679 314.7663  6.42584036 57766
SITRO-AIS 5 (KATYS)     
1 57176U 23091L   25001.11444801  .00023862  00000+0  12778-2 0  9999
2 57176  97.5846  58.1287 0016014 158.3186 201.8727 15.14906270 83397
SITRO-AIS 6 (CHIRKIN)   
1 57192U 23091AC  25001.09483278  .00020956  00000+0  11230-2 0  9998
2 57192  97.5848  58.1393 0015921 157.8817 202.3105 15.14910196 83394
SITRO-AIS 8 (ANOKHIN)   
1 57193U 23091AD  25001.12385952  .00025724  00000+0  13444-2 0  9990
2 57193  97.5843  58.3960 0015486 158.1278 202.0618 15.15759410 83413
SITRO-AIS 7 (FARTUSHNIY)
1 57194U 23091AE  25001.04290095  .00022433  00000+0  12050-2 0  9991
2 57194  97.5845  58.0459 0015775 158.8210 201.3678 15.14813079 83385
SITRO-AIS 10 (BURDAEV)  
1 57199U 23091AK  25001.14978155  .00029003  00000+0  14115-2 0  9991
2 57199  97.5860  59.9996 0011447 142.6001 217.6032 15.18283299 83512
SITRO-AIS 9 (SHCHUKIN)  
1 57201U 23091AM  24366.95560584  .00028911  00000+0  14107-2 0  9998
2 57201  97.5856  59.7611 0011379 143.4400 216.7613 15.18193701 83488
SITRO-AIS 12 (SMIRENNIY)
1 57204U 23091AQ  25001.15634489  .00029821  00000+0  14464-2 0  9993
2 57204  97.5864  60.1755 0011404 137.1670 223.0454 15.18395368 83525
SITRO-AIS 11 (SHEFFER)  
1 57208U 23091AU  24366.92903499  .00027774  00000+0  13426-2 0  9997
2 57208  97.5860  60.0001 0011208 138.4693 221.7394 15.18529760 83498
VERONIKA                
1 58261U 23174F   24366.90667179  .00077744  00000+0  20125-2 0  9995
2 58261  97.4380  81.7688 0008048 261.7779  98.2553 15.38743332 63912
ROBUSTA-1E (ENSO)       
1 58470U 23185J   25001.12316627  .00059760  00000+0  16100-2 0  9995
2 58470  97.3998  73.2450 0008571 299.1586  60.8800 15.37587317 60390
SITRO-AIS 29            
1 59052U 24039B   25001.16665639  .00112474  00000+0  19721-2 0  9999
2 59052  97.4107 330.4478 0008356 206.1063 153.9768 15.50125488 47009
SITRO-AIS 30            
1 59053U 24039C   25001.13564166  .00108052  00000+0  19392-2 0  9991
2 59053  97.4107 330.3308 0008524 209.9445 150.1320 15.49477076 46983
SITRO-AIS 31            
1 59054U 24039D   25001.09513603  .00106841  00000+0  18851-2 0  9990
2 59054  97.4107 330.3848 0008290 210.2593 149.8180 15.49969264 47000
SITRO-AIS 33            
1 59055U 24039E   25001.13600242  .00114464  00000+0  20068-2 0  9995
2 59055  97.4107 330.4963 0008030 208.0044 152.0777 15.50123368 47005
SITRO-AIS 35            
1 59056U 24039F   25001.12864840  .00113841  00000+0  19905-2 0  9997
2 59056  97.4108 330.4996 0007933 209.9924 150.0874 15.50203349 47005
SITRO-AIS 32            
1 59057U 24039G   25001.16411630  .00110175  00000+0  19580-2 0  9993
2 59057  97.4112 330.4615 0008184 210.3109 149.7669 15.49752095 47001
SITRO-AIS 34            
1 59058U 24039H   25001.13552272  .00111360  00000+0  19547-2 0  9999
2 59058  97.4109 330.4987 0007994 208.2278 151.8541 15.50101735 47005
SITRO-AIS 36            
1 59059U 24039J   25001.17786991  .00108797  00000+0  19045-2 0  9994
2 59059  97.4101 330.5887 0007687 208.2570 151.8266 15.50191520 47018
SITRO-AIS 49            
1 59060U 24039K   25001.13598352  .00110421  00000+0  19591-2 0  9997
2 59060  97.4110 330.4968 0008036 209.5449 150.5349 15.49799880 47005
SITRO-AIS 50            
1 59061U 24039L   25001.14288785  .00124659  00000+0  21418-2 0  9994
2 59061  97.4101 330.6334 0007648 204.8891 155.1993 15.50662033 47010
SITRO-AIS 51            
1 59062U 24039M   25001.13869467  .00116183  00000+0  19855-2 0  9991
2 59062  97.4100 330.6358 0007600 204.8311 155.2576 15.50845878 47019
SITRO-AIS 52            
1 59063U 24039N   25001.11957266  .00117535  00000+0  20058-2 0  9994
2 59063  97.4107 330.6670 0007425 206.9124 153.1744 15.50881763 47011
SITRO-AIS 25            
1 59066U 24039R   25001.08958726  .00012645  00000+0  11166-2 0  9991
2 59066  95.3845 231.5899 0162793  21.0414 339.7403 14.86724666 45478
SITRO-AIS 26            
1 59067U 24039S   25001.03277954  .00012537  00000+0  11105-2 0  9997
2 59067  95.3846 231.5339 0162978  21.3619 339.4302 14.86589785 45469
SITRO-AIS 27            
1 59068U 24039T   25001.12835109  .00012399  00000+0  10918-2 0  9997
2 59068  95.3849 231.6681 0162357  20.6608 340.1078 14.86879158 45482
